STARLETTE               
1 07646U 75010A   24108.42138865 -.00000111  00000+0  24426-4 0  9993
2 07646  49.8262 345.8548 0205727 330.7467  28.2032 13.82326884485139
LAGEOS 1                
1 08820U 76039A   24108.45827135  .00000026  00000+0  00000+0 0  9999
2 08820 109.8445 268.4650 0044354 111.9646 276.0287  6.38664884863057
AJISAI (EGS)            
1 16908U 86061A   24107.94020583 -.00000098  00000+0 -69256-5 0  9991
2 16908  50.0101  60.4379 0011362 326.7984  63.9386 12.44504895381867
COSMOS 1989 (ETALON 1)  
1 19751U 89001C   24108.48790619  .00000064  00000+0  00000+0 0  9998
2 19751  64.5294  99.3254 0023907 215.9168 318.1078  2.13156267274587
COSMOS 2024 (ETALON 2)  
1 20026U 89039C   24108.39395439 -.00000060  00000+0  00000+0 0  9994
2 20026  65.3618 337.6334 0019284 217.4324 266.6813  2.13204512271638
LAGEOS 2                
1 22195U 92070B   24107.26022856 -.00000009  00000+0  00000+0 0  9990
2 22195  52.6730  47.1092 0137603 200.5767 229.2561  6.47293513744152
STELLA                  
1 22824U 93061B   24108.54277413  .00000000  00000+0  18899-4 0  9993
2 22824  98.8854 153.8627 0006740  23.6334 128.1756 14.27421167592137
LARETS                  
1 27944U 03042F   24108.46772206  .00000311  00000+0  69445-4 0  9990
2 27944  98.3048 248.2523 0012066 351.6733   8.4267 14.63485824 97771
LARES                   
1 38077U 12006A   24107.60901888 -.00000047  00000+0 -51443-4 0  9991
2 38077  69.4915 204.3321 0006638  61.2440 298.9252 12.54931500557752
LARES-2                 
1 53105U 22080A   24108.44222093 -.00000014  00000+0  00000+0 0  9991
2 53105  70.1343 216.5109 0005060 152.0121 208.0707  6.38965154 41142
